{"type": "FeatureCollection", "features": [ {"type": "Feature", "properties": {"norad_id": 30530, "name": "FENGYUN 1C DEB", "group": "fengyun-1c-debris", "lat": -5.074754926886149, "lon": 39.5028203979217, "alt_km": 784.9360913308819, "timestamp": "2025-12-26T17:24:54.996372+00:00", "meta": {"OBJECT_NAME": "FENGYUN 1C DEB", "OBJECT_ID": "1999-025AJU", "EPOCH": "2025-12-25T08:17:31.277760", "MEAN_MOTION": 14.36801397, "ECCENTRICITY": 0.0100443, "INCLINATION": 98.3949, "RA_OF_ASC_NODE": 37.4054, "ARG_OF_PERICENTER": 99.5172, "MEAN_ANOMALY": 321.9939, "EPHEMERIS_TYPE": 0, "CLASSIFICATION_TYPE": "U", "NORAD_CAT_ID": 30530, "ELEMENT_SET_NO": 999, "REV_AT_EPOCH": 98966, "BSTAR": 0.00022547, "MEAN_MOTION_DOT": 6.62e-06, "MEAN_MOTION_DDOT": 0}, "tle": {"line1": "1 30530U 99025AJU 25359.34550090  .00000662  00000+0  22547-3 0  9992", "line2": "2 30530  98.3949  37.4054 0100443  99.5172 321.9939 14.36801397989669"}}, "geometry": {"type": "Point", "coordinates": [39.5028203979217, -5.074754926886149]}}, {"type": "Feature", "properties": {"norad_id": 30531, "name": "FENGYUN 1C DEB", "group": "fengyun-1c-debris", "lat": -52.74667569817769, "lon": -3.0344363711044213, "alt_km": 684.8256048429303, "timestamp": "2025-12-26T17:24:54.996382+00:00", "meta": {"OBJECT_NAME": "FENGYUN 1C DEB", "OBJECT_ID": "1999-025AJV", "EPOCH": "2025-12-26T06:29:46.287168", "MEAN_MOTION": 14.62418716, "ECCENTRICITY": 0.00262181, "INCLINATION": 102.3108, "RA_OF_ASC_NODE": 192.9775, "ARG_OF_PERICENTER": 168.7869, "MEAN_ANOMALY": 191.3907, "EPHEMERIS_TYPE": 0, "CLASSIFICATION_TYPE": "U", "NORAD_CAT_ID": 30531, "ELEMENT_SET_NO": 999, "REV_AT_EPOCH": 97893, "BSTAR": 0.0042672834, "MEAN_MOTION_DOT": 0.00021691, "MEAN_MOTION_DDOT": 0}, "tle": {"line1": "1 30531U 99025AJV 25360.27067462  .00021691  00000+0  42673-2 0  9999", "line2": "2 30531 102.3108 192.9775 0026218 168.7869 191.3907 14.62418716978939"}}, "geometry": {"type": "Point", "coordinates": [-3.0344363711044213, -52.74667569817769]}}, {"type": "Feature", "properties": {"norad_id": 30532, "name": "FENGYUN 1C DEB", "group": "fengyun-1c-debris", "lat": 13.969774558448806, "lon": -133.16856232747313, "alt_km": 450.55202538157755, "timestamp": "2025-12-26T17:24:54.996392+00:00", "meta": {"OBJECT_NAME": "FENGYUN 1C DEB", "OBJECT_ID": "1999-025AJW", "EPOCH": "2025-12-25T14:06:02.321568", "MEAN_MOTION": 15.34673313, "ECCENTRICITY": 0.0019191, "INCLINATION": 96.9579, "RA_OF_ASC_NODE": 44.0159, "ARG_OF_PERICENTER": 214.4845, "MEAN_ANOMALY": 145.5155, "EPHEMERIS_TYPE": 0, "CLASSIFICATION_TYPE": "U", "NORAD_CAT_ID": 30532, "ELEMENT_SET_NO": 999, "REV_AT_EPOCH": 97884, "BSTAR": 0.013937, "MEAN_MOTION_DOT": 0.00501761, "MEAN_MOTION_DDOT": 0}, "tle": {"line1": "1 30532U 99025AJW 25359.58752687  .00501761  00000+0  13937-1 0  9993", "line2": "2 30532  96.9579  44.0159 0019191 214.4845 145.5155 15.34673313978840"}}, "geometry": {"type": "Point", "coordinates": [-133.16856232747313, 13.969774558448806]}}, {"type": "Feature", "properties": {"norad_id": 30533, "name": "FENGYUN 1C DEB", "group": "fengyun-1c-debris", "lat": 23.942422467750788, "lon": -45.73247853219272, "alt_km": 673.1808747627219, "timestamp": "2025-12-26T17:24:54.996402+00:00", "meta": {"OBJECT_NAME": "FENGYUN 1C DEB", "OBJECT_ID": "1999-025AJX", "EPOCH": "2025-12-24T20:42:58.562784", "MEAN_MOTION": 14.54112525, "ECCENTRICITY": 0.00810279, "INCLINATION": 98.8337, "RA_OF_ASC_NODE": 128.3433, "ARG_OF_PERICENTER": 112.7899, "MEAN_ANOMALY": 18.0384, "EPHEMERIS_TYPE": 0, "CLASSIFICATION_TYPE": "U", "NORAD_CAT_ID": 30533, "ELEMENT_SET_NO": 999, "REV_AT_EPOCH": 97997, "BSTAR": 0.0030460631, "MEAN_MOTION_DOT": 0.00013416, "MEAN_MOTION_DDOT": 0}, "tle": {"line1": "1 30533U 99025AJX 25358.86317781  .00013416  00000+0  30461-2 0  9993", "line2": "2 30533  98.8337 128.3433 0081027 112.7899  18.0384 14.54112525979978"}}, "geometry": {"type": "Point", "coordinates": [-45.73247853219272, 23.942422467750788]}}, {"type": "Feature", "properties": {"norad_id": 30539, "name": "FENGYUN 1C DEB", "group": "fengyun-1c-debris", "lat": -44.25800973516356, "lon": -9.1742911572449, "alt_km": 702.4292023812068, "timestamp": "2025-12-26T17:24:54.996412+00:00", "meta": {"OBJECT_NAME": "FENGYUN 1C DEB", "OBJECT_ID": "1999-025AKD", "EPOCH": "2025-12-24T22:43:29.221536", "MEAN_MOTION": 14.55471557, "ECCENTRICITY": 0.01153906, "INCLINATION": 98.8821, "RA_OF_ASC_NODE": 340.1699, "ARG_OF_PERICENTER": 238.3602, "MEAN_ANOMALY": 120.6295, "EPHEMERIS_TYPE": 0, "CLASSIFICATION_TYPE": "U", "NORAD_CAT_ID": 30539, "ELEMENT_SET_NO": 999, "REV_AT_EPOCH": 99543, "BSTAR": 0.00061730807, "MEAN_MOTION_DOT": 2.879e-05, "MEAN_MOTION_DDOT": 0}, "tle": {"line1": "1 30539U 99025AKD 25358.94686599  .00002879  00000+0  61731-3 0  9990", "line2": "2 30539  98.8821 340.1699 0115390 238.3602 120.6295 14.55471557995432"}}, "geometry": {"type": "Point", "coordinates": [-9.1742911572449, -44.25800973516356]}}, {"type": "Feature", "properties": {"norad_id": 30540, "name": "FENGYUN 1C DEB", "group": "fengyun-1c-debris", "lat": 77.62076046719207, "lon": 63.988048305983625, "alt_km": 758.7051104815991, "timestamp": "2025-12-26T17:24:54.996422+00:00", "meta": {"OBJECT_NAME": "FENGYUN 1C DEB", "OBJECT_ID": "1999-025AKE", "EPOCH": "2025-12-24T18:48:58.101120", "MEAN_MOTION": 14.32387964, "ECCENTRICITY": 0.0050557, "INCLINATION": 98.8784, "RA_OF_ASC_NODE": 107.4125, "ARG_OF_PERICENTER": 26.0109, "MEAN_ANOMALY": 128.2486, "EPHEMERIS_TYPE": 0, "CLASSIFICATION_TYPE": "U", "NORAD_CAT_ID": 30540, "ELEMENT_SET_NO": 999, "REV_AT_EPOCH": 97458, "BSTAR": 0.0018113679, "MEAN_MOTION_DOT": 4.924e-05, "MEAN_MOTION_DDOT": 0}, "tle": {"line1": "1 30540U 99025AKE 25358.78400580  .00004924  00000+0  18114-2 0  9997", "line2": "2 30540  98.8784 107.4125 0050557  26.0109 128.2486 14.32387964974589"}}, "geometry": {"type": "Point", "coordinates": [63.988048305983625, 77.62076046719207]}}, {"type": "Feature", "properties": {"norad_id": 30541, "name": "FENGYUN 1C DEB", "group": "fengyun-1c-debris", "lat": 7.633463829916903, "lon": 45.91592654093018, "alt_km": 806.7722358553956, "timestamp": "2025-12-26T17:24:54.996433+00:00", "meta": {"OBJECT_NAME": "FENGYUN 1C DEB", "OBJECT_ID": "1999-025AKF", "EPOCH": "2025-12-26T02:11:33.615456", "MEAN_MOTION": 14.23115678, "ECCENTRICITY": 0.00174773, "INCLINATION": 98.6932, "RA_OF_ASC_NODE": 46.4647, "ARG_OF_PERICENTER": 47.6177, "MEAN_ANOMALY": 312.6478, "EPHEMERIS_TYPE": 0, "CLASSIFICATION_TYPE": "U", "NORAD_CAT_ID": 30541, "ELEMENT_SET_NO": 999, "REV_AT_EPOCH": 97517, "BSTAR": 0.0010692618, "MEAN_MOTION_DOT": 2.374e-05, "MEAN_MOTION_DDOT": 0}, "tle": {"line1": "1 30541U 99025AKF 25360.09136129  .00002374  00000+0  10693-2 0  9991", "line2": "2 30541  98.6932  46.4647 0017477  47.6177 312.6478 14.23115678975179"}}, "geometry": {"type": "Point", "coordinates": [45.91592654093018, 7.633463829916903]}}, {"type": "Feature", "properties": {"norad_id": 30542, "name": "FENGYUN 1C DEB", "group": "fengyun-1c-debris", "lat": 34.38777386159765, "lon": -144.84789308220235, "alt_km": 884.2001089501628, "timestamp": "2025-12-26T17:24:54.996442+00:00", "meta": {"OBJECT_NAME": "FENGYUN 1C DEB", "OBJECT_ID": "1999-025AKG", "EPOCH": "2025-12-26T01:37:51.852000", "MEAN_MOTION": 14.06981043, "ECCENTRICITY": 0.00270704, "INCLINATION": 98.7858, "RA_OF_ASC_NODE": 28.4374, "ARG_OF_PERICENTER": 295.7426, "MEAN_ANOMALY": 120.1105, "EPHEMERIS_TYPE": 0, "CLASSIFICATION_TYPE": "U", "NORAD_CAT_ID": 30542, "ELEMENT_SET_NO": 999, "REV_AT_EPOCH": 97106, "BSTAR": 7.6333926e-05, "MEAN_MOTION_DOT": 8.5e-07, "MEAN_MOTION_DDOT": 0}, "tle": {"line1": "1 30542U 99025AKG 25360.06796125  .00000085  00000+0  76334-4 0  9990", "line2": "2 30542  98.7858  28.4374 0027070 295.7426 120.1105 14.06981043971069"}}, "geometry": {"type": "Point", "coordinates": [-144.84789308220235, 34.38777386159765]}}, {"type": "Feature", "properties": {"norad_id": 30543, "name": "FENGYUN 1C DEB", "group": "fengyun-1c-debris", "lat": 58.169383357953805, "lon": -4.611251303210083, "alt_km": 852.4136160824855, "timestamp": "2025-12-26T17:24:54.996452+00:00", "meta": {"OBJECT_NAME": "FENGYUN 1C DEB", "OBJECT_ID": "1999-025AKH", "EPOCH": "2025-12-26T00:17:27.462624", "MEAN_MOTION": 14.03751797, "ECCENTRICITY": 0.00720507, "INCLINATION": 98.8328, "RA_OF_ASC_NODE": 9.2017, "ARG_OF_PERICENTER": 356.7668, "MEAN_ANOMALY": 58.0904, "EPHEMERIS_TYPE": 0, "CLASSIFICATION_TYPE": "U", "NORAD_CAT_ID": 30543, "ELEMENT_SET_NO": 999, "REV_AT_EPOCH": 96691, "BSTAR": 0.00013342818, "MEAN_MOTION_DOT": 1.72e-06, "MEAN_MOTION_DDOT": 0}, "tle": {"line1": "1 30543U 99025AKH 25360.01212341  .00000172  00000+0  13343-3 0  9996", "line2": "2 30543  98.8328   9.2017 0072050 356.7668  58.0904 14.03751797966910"}}, "geometry": {"type": "Point", "coordinates": [-4.611251303210083, 58.169383357953805]}}, {"type": "Feature", "properties": {"norad_id": 30545, "name": "FENGYUN 1C DEB", "group": "fengyun-1c-debris", "lat": -10.378067661324225, "lon": 29.336941185804765, "alt_km": 1478.9294065841577, "timestamp": "2025-12-26T17:24:54.996484+00:00", "meta": {"OBJECT_NAME": "FENGYUN 1C DEB", "OBJECT_ID": "1999-025AKK", "EPOCH": "2025-12-25T13:09:34.122240", "MEAN_MOTION": 13.20792989, "ECCENTRICITY": 0.0472559, "INCLINATION": 98.9978, "RA_OF_ASC_NODE": 209.9845, "ARG_OF_PERICENTER": 339.9155, "MEAN_ANOMALY": 18.3905, "EPHEMERIS_TYPE": 0, "CLASSIFICATION_TYPE": "U", "NORAD_CAT_ID": 30545, "ELEMENT_SET_NO": 999, "REV_AT_EPOCH": 91099, "BSTAR": 0.0005625, "MEAN_MOTION_DOT": 3.74e-06, "MEAN_MOTION_DDOT": 0}, "tle": {"line1": "1 30545U 99025AKK 25359.54831160  .00000374  00000+0  56250-3 0  9998", "line2": "2 30545  98.9978 209.9845 0472559 339.9155  18.3905 13.20792989910997"}}, "geometry": {"type": "Point", "coordinates": [29.336941185804765, -10.378067661324225]}}]}